NORAD_CAT_ID,OBJECT_NAME,OBJECT_TYPE,EPOCH,MEAN_MOTION,ECCENTRICITY,INCLINATION,RA_OF_ASC_NODE,ARG_OF_PERICENTER,MEAN_ANOMALY,BSTAR,MEAN_MOTION_DOT,MEAN_MOTION_DDOT,TLE_LINE0,TLE_LINE1,TLE_LINE2,SEMIMAJOR_AXIS,PERIOD,APOGEE,PERIGEE,DECAYED
53261.0,STARLINK-4062,PAYLOAD,2024-05-09 20:14:07,15.08854886,0.0001234,53.2154,316.6915,68.3812,291.7312,0.00049102,7.538e-05,0.0,0 STARLINK-4062,1 53261U 22086V   24130.84314444  .00007538  00000-0  49102-3 0  9999,2 53261  53.2154 316.6915 0001234  68.3812 291.7312 15.08854886100096,6917.835,95.437,540.554,538.846,0.0
53261.0,STARLINK-4062,PAYLOAD,2024-05-10 05:46:26,15.08849855,0.0001115,53.2149,314.9067,82.7173,277.3945,0.00029969,4.486e-05,0.0,0 STARLINK-4062,1 53261U 22086V   24131.24058421  .00004486  00000-0  29969-3 0  9992,2 53261  53.2149 314.9067 0001115  82.7173 277.3945 15.08849855 99973,6917.85,95.437,540.487,538.944,0.0
53261.0,STARLINK-4062,PAYLOAD,2024-05-10 18:29:31,15.08843874,0.0001114,53.2165,312.5277,88.0146,272.0974,0.0001359,1.876e-05,0.0,0 STARLINK-4062,1 53261U 22086V   24131.77050666  .00001876  00000-0  13590-3 0  9996,2 53261  53.2165 312.5277 0001114  88.0146 272.0974 15.08843874100057,6917.869,95.437,540.504,538.963,0.0
53261.0,STARLINK-4062,PAYLOAD,2024-05-10 21:40:17,15.08857747,0.0001418,53.219,311.9272,110.5126,249.6019,0.00024,3.536e-05,0.0,0 STARLINK-4062,1 53261U 22086V   24131.90297874  .00003536  00000-0  24000-3 0  9998,2 53261  53.2190 311.9272 0001418 110.5126 249.6019 15.08857747100255,6917.826,95.436,540.672,538.71,0.0
53261.0,STARLINK-4062,PAYLOAD,2024-05-11 18:20:17,15.08787686,0.0001656,53.2161,308.0658,89.6771,270.4411,-0.0036271,-0.00057471,0.0,0 STARLINK-4062,1 53261U 22086V   24132.76408692 -.00057471  00000-0 -36271-2 0  9996,2 53261  53.2161 308.0658 0001656  89.6771 270.4411 15.08787686100201,6918.04,95.441,541.051,538.76,0.0
53261.0,STARLINK-4062,PAYLOAD,2024-05-11 21:31:04,15.08771937,0.0001518,53.2167,307.4715,87.9576,272.159,-0.0035993,-0.00057012,0.0,0 STARLINK-4062,1 53261U 22086V   24132.89657434 -.00057012  00000-0 -35993-2 0  9991,2 53261  53.2167 307.4715 0001518  87.9576 272.1590 15.08771937100406,6918.088,95.442,541.004,538.903,0.0
53261.0,STARLINK-4062,PAYLOAD,2024-05-12 11:49:37,15.08716904,0.0001716,53.219,304.7902,96.7071,263.4116,-0.0028733,-0.00045575,0.0,0 STARLINK-4062,1 53261U 22086V   24133.49279210 -.00045575  00000-0 -28733-2 0  9995,2 53261  53.2190 304.7902 0001716  96.7071 263.4116 15.08716904100318,6918.257,95.445,541.309,538.934,0.0
53261.0,STARLINK-4062,PAYLOAD,2024-05-12 21:21:57,15.08791402,0.0001608,53.2184,303.0111,91.232,268.8856,0.0012175,0.00019116,0.0,0 STARLINK-4062,1 53261U 22086V   24133.89025455  .00019116  00000-0  12175-2 0  9992,2 53261  53.2184 303.0111 0001608  91.2320 268.8856 15.08791402100374,6918.029,95.441,541.006,538.782,0.0
53261.0,STARLINK-4062,PAYLOAD,2024-05-13 03:43:30,15.08818295,0.0001369,53.218,301.821,90.7614,269.3535,0.0014223,0.00022407,0.0,0 STARLINK-4062,1 53261U 22086V   24134.15521236  .00022407  00000-0  14223-2 0  9993,2 53261  53.2180 301.8210 0001369  90.7614 269.3535 15.08818295100415,6917.947,95.439,540.759,538.865,0.0
53261.0,STARLINK-4062,PAYLOAD,2024-05-13 10:05:03,15.08836879,0.0001463,53.2189,300.6361,98.7329,261.3829,0.0010669,0.00016731,0.0,0 STARLINK-4062,1 53261U 22086V   24134.42017467  .00016731  00000-0  10669-2 0  9992,2 53261  53.2189 300.6361 0001463  98.7329 261.3829 15.08836879100634,6917.89,95.438,540.767,538.743,0.0
53261.0,STARLINK-4062,PAYLOAD,2024-05-13 18:01:57,15.08879633,0.0001278,53.2166,299.1453,69.3101,290.8028,0.001237,0.00019475,0.0,0 STARLINK-4062,1 53261U 22086V   24134.75136019  .00019475  00000-0  12370-2 0  9992,2 53261  53.2166 299.1453 0001278  69.3101 290.8028 15.08879633100508,6917.759,95.435,540.508,538.74,0.0
53261.0,STARLINK-4062,PAYLOAD,2024-05-13 21:12:43,15.08903228,0.0001335,53.2178,298.5535,91.5644,268.5501,0.0023156,0.00036822,0.0,0 STARLINK-4062,1 53261U 22086V   24134.88383472  .00036822  00000-0  23156-2 0  9992,2 53261  53.2178 298.5535 0001335  91.5644 268.5501 15.08903228100706,6917.687,95.434,540.476,538.629,0.0
53261.0,STARLINK-4062,PAYLOAD,2024-05-14 11:31:09,15.08910551,0.0001339,53.2159,295.8738,73.4013,286.7126,0.0011453,0.00018022,0.0,0 STARLINK-4062,1 53261U 22086V   24135.47997161  .00018022  00000-0  11453-2 0  9993,2 53261  53.2159 295.8738 0001339  73.4013 286.7126 15.08910551100794,6917.665,95.433,540.456,538.603,0.0
53261.0,STARLINK-4062,PAYLOAD,2024-05-14 17:52:40,15.0893054,0.0001598,53.2167,294.6819,339.4353,20.6574,0.0021889,0.00034807,0.0,0 STARLINK-4062,1 53261U 22086V   24135.74491569  .00034807  00000-0  21889-2 0  9997,2 53261  53.2167 294.6819 0001598 339.4353  20.6574 15.08930540100836,6917.604,95.432,540.574,538.363,0.0
53261.0,STARLINK-4062,PAYLOAD,2024-05-15 03:24:58,15.08923425,0.000152,53.2169,292.8975,60.6676,299.4468,0.0018963,0.0003009,0.0,0 STARLINK-4062,1 53261U 22086V   24136.14234504  .00030090  00000-0  18963-2 0  9995,2 53261  53.2169 292.8975 0001520  60.6676 299.4468 15.08923425100716,6917.625,95.432,540.542,538.439,0.0
53261.0,STARLINK-4062,PAYLOAD,2024-05-15 09:46:32,15.08800736,5.04e-05,53.2151,291.7071,82.3948,277.7102,-0.0028703,-0.00045629,0.0,0 STARLINK-4062,1 53261U 22086V   24136.40731879 -.00045629  00000-0 -28703-2 0  9990,2 53261  53.2151 291.7071 0000504  82.3948 277.7102 15.08800736100753,6918.0,95.44,540.214,539.517,0.0
53261.0,STARLINK-4062,PAYLOAD,2024-05-15 14:32:40,15.08876382,7.87e-05,53.2156,290.8153,90.1491,269.9591,0.002027,0.00032151,0.0,0 STARLINK-4062,1 53261U 22086V   24136.60602505  .00032151  00000-0  20270-2 0  9990,2 53261  53.2156 290.8153 0000787  90.1491 269.9591 15.08876382100960,6917.769,95.435,540.179,539.09,0.0
53261.0,STARLINK-4062,PAYLOAD,2024-05-15 17:43:27,15.08845516,0.000131,53.2162,290.2243,88.5891,271.5252,0.0013319,0.00020976,0.0,0 STARLINK-4062,1 53261U 22086V   24136.73851113  .00020976  00000-0  13319-2 0  9993,2 53261  53.2162 290.2243 0001310  88.5891 271.5252 15.08845516100800,6917.864,95.437,540.635,538.822,0.0
53261.0,STARLINK-4062,PAYLOAD,2024-05-16 03:15:46,15.08849885,0.0001303,53.2158,288.4396,84.4792,275.6348,0.00099133,0.00015528,0.0,0 STARLINK-4062,1 53261U 22086V   24137.13595063  .00015528  00000-0  99133-3 0  9993,2 53261  53.2158 288.4396 0001303  84.4792 275.6348 15.08849885100860,6917.85,95.437,540.617,538.814,0.0
53261.0,STARLINK-4062,PAYLOAD,2024-05-16 09:37:18,15.0884006,0.0001536,53.2159,287.2497,94.1297,265.9871,0.00050145,7.702e-05,0.0,0 STARLINK-4062,1 53261U 22086V   24137.40091258  .00007702  00000-0  50145-3 0  9995,2 53261  53.2159 287.2497 0001536  94.1297 265.9871 15.08840060100900,6917.88,95.438,540.808,538.683,0.0
53261.0,STARLINK-4062,PAYLOAD,2024-05-17 03:06:32,15.08866322,4.31e-05,53.216,283.9772,156.4777,203.6235,0.0011026,0.00017316,0.0,0 STARLINK-4062,1 53261U 22086V   24138.12954110  .00017316  00000-0  11026-2 0  9996,2 53261  53.2160 283.9772 0000431 156.4777 203.6235 15.08866322101014,6917.8,95.436,539.963,539.367,0.0
53261.0,STARLINK-4062,PAYLOAD,2024-05-17 09:28:05,15.08846059,0.0002936,53.2148,282.7906,87.8505,272.2824,0.00023737,3.492e-05,0.0,0 STARLINK-4062,1 53261U 22086V   24138.39451211  .00003492  00000-0  23737-3 0  9992,2 53261  53.2148 282.7906 0002936  87.8505 272.2824 15.08846059101059,6917.862,95.437,541.758,537.696,0.0
53261.0,STARLINK-4062,PAYLOAD,2024-05-17 19:00:24,15.08850827,0.0002071,53.2145,281.0045,98.8023,261.3204,0.00084554,0.00013198,0.0,0 STARLINK-4062,1 53261U 22086V   24138.79194997  .00013198  00000-0  84554-3 0  9999,2 53261  53.2145 281.0045 0002071  98.8023 261.3204 15.08850827101294,6917.847,95.437,541.145,538.28,0.0
53261.0,STARLINK-4062,PAYLOAD,2024-05-18 02:57:20,15.08834372,0.0002491,53.2149,279.5157,91.8666,268.2611,0.001044,0.00016364,0.0,0 STARLINK-4062,1 53261U 22086V   24139.12315720  .00016364  00000-0  10440-2 0  9996,2 53261  53.2149 279.5157 0002491  91.8666 268.2611 15.08834372101167,6917.898,95.438,541.486,538.039,0.0
53261.0,STARLINK-4062,PAYLOAD,2024-05-18 09:18:53,15.08853672,0.0002248,53.21,278.3271,86.1733,273.9517,0.0016849,0.0002664,0.0,0 STARLINK-4062,1 53261U 22086V   24139.38811472  .00026640  00000-0  16849-2 0  9996,2 53261  53.2100 278.3271 0002248  86.1733 273.9517 15.08853672101207,6917.839,95.437,541.259,538.148,0.0
53261.0,STARLINK-4062,PAYLOAD,2024-05-18 14:05:02,15.08864742,0.0001958,53.2154,277.4355,85.1137,275.0079,0.0019261,0.0003052,0.0,0 STARLINK-4062,1 53261U 22086V   24139.58683193  .00030520  00000-0  19261-2 0  9998,2 53261  53.2154 277.4355 0001958  85.1137 275.0079 15.08864742101412,6917.805,95.436,541.024,538.315,0.0
53261.0,STARLINK-4062,PAYLOAD,2024-05-18 15:40:25,15.088695,0.0001761,53.214,277.1392,79.2941,280.8249,0.002226,0.00035346,0.0,0 STARLINK-4062,1 53261U 22086V   24139.65307051  .00035346  00000-0  22260-2 0  9996,2 53261  53.2140 277.1392 0001761  79.2941 280.8249 15.08869500101425,6917.79,95.436,540.873,538.437,0.0
53261.0,STARLINK-4062,PAYLOAD,2024-05-19 13:55:50,15.08819422,0.0001433,53.2154,272.9755,89.2017,270.9139,0.0015383,0.00024265,0.0,0 STARLINK-4062,1 53261U 22086V   24140.58044184  .00024265  00000-0  15383-2 0  9991,2 53261  53.2154 272.9755 0001433  89.2017 270.9139 15.08819422101568,6917.943,95.439,540.8,538.817,0.0
53261.0,STARLINK-4062,PAYLOAD,2024-05-19 18:41:59,15.08826529,0.0001537,53.2166,272.083,97.8912,262.2255,0.002256,0.00035786,0.0,0 STARLINK-4062,1 53261U 22086V   24140.77916587  .00035786  00000-0  22560-2 0  9992,2 53261  53.2166 272.0830 0001537  97.8912 262.2255 15.08826529101413,6917.922,95.438,540.85,538.723,0.0
53261.0,STARLINK-4062,PAYLOAD,2024-05-20 13:46:37,15.08875311,0.0001499,53.2169,268.5149,93.5085,266.6079,0.0019705,0.00031242,0.0,0 STARLINK-4062,1 53261U 22086V   24141.57403953  .00031242  00000-0  19705-2 0  9999,2 53261  53.2169 268.5149 0001499  93.5085 266.6079 15.08875311101718,6917.772,95.435,540.674,538.6,0.0
